{"type": "FeatureCollection", "features": [ {"type": "Feature", "properties": {"norad_id": 31752, "name": "FENGYUN 1C DEB", "group": "fengyun-1c-debris", "lat": -6.8859076608206315, "lon": 53.32062128551314, "alt_km": 661.8108350030134, "timestamp": "2025-12-05T05:43:15.393431+00:00", "meta": {"OBJECT_NAME": "FENGYUN 1C DEB", "OBJECT_ID": "1999-025CFB", "EPOCH": "2025-11-28T11:42:46.096128", "MEAN_MOTION": 13.92945252, "ECCENTRICITY": 0.0356614, "INCLINATION": 98.9794, "RA_OF_ASC_NODE": 45.6633, "ARG_OF_PERICENTER": 12.9266, "MEAN_ANOMALY": 348.0748, "EPHEMERIS_TYPE": 0, "CLASSIFICATION_TYPE": "U", "NORAD_CAT_ID": 31752, "ELEMENT_SET_NO": 999, "REV_AT_EPOCH": 93392, "BSTAR": 0.0012622162, "MEAN_MOTION_DOT": 2.723e-05, "MEAN_MOTION_DDOT": 0}, "tle": {"line1": "1 31752U 99025CFB 25332.48803352  .00002723  00000+0  12622-2 0  9999", "line2": "2 31752  98.9794  45.6633 0356614  12.9266 348.0748 13.92945252933926"}}, "geometry": {"type": "Point", "coordinates": [53.32062128551314, -6.8859076608206315]}}, {"type": "Feature", "properties": {"norad_id": 31753, "name": "FENGYUN 1C DEB", "group": "fengyun-1c-debris", "lat": -68.60427402888219, "lon": 35.368201496642335, "alt_km": 844.0571278268999, "timestamp": "2025-12-05T05:43:15.393441+00:00", "meta": {"OBJECT_NAME": "FENGYUN 1C DEB", "OBJECT_ID": "1999-025CFC", "EPOCH": "2025-12-04T13:51:22.468032", "MEAN_MOTION": 14.18618704, "ECCENTRICITY": 0.0158713, "INCLINATION": 98.6331, "RA_OF_ASC_NODE": 11.9101, "ARG_OF_PERICENTER": 197.2848, "MEAN_ANOMALY": 316.6014, "EPHEMERIS_TYPE": 0, "CLASSIFICATION_TYPE": "U", "NORAD_CAT_ID": 31753, "ELEMENT_SET_NO": 999, "REV_AT_EPOCH": 95903, "BSTAR": 0.00056773, "MEAN_MOTION_DOT": 1.29e-05, "MEAN_MOTION_DDOT": 0}, "tle": {"line1": "1 31753U 99025CFC 25338.57734338  .00001290  00000+0  56773-3 0  9997", "line2": "2 31753  98.6331  11.9101 0158713 197.2848 316.6014 14.18618704959035"}}, "geometry": {"type": "Point", "coordinates": [35.368201496642335, -68.60427402888219]}}, {"type": "Feature", "properties": {"norad_id": 31754, "name": "FENGYUN 1C DEB", "group": "fengyun-1c-debris", "lat": 73.59395546295411, "lon": 156.81623619728353, "alt_km": 769.923488272495, "timestamp": "2025-12-05T05:43:15.393451+00:00", "meta": {"OBJECT_NAME": "FENGYUN 1C DEB", "OBJECT_ID": "1999-025CFD", "EPOCH": "2025-12-02T03:58:18.660864", "MEAN_MOTION": 14.42137718, "ECCENTRICITY": 0.00492209, "INCLINATION": 99.0387, "RA_OF_ASC_NODE": 300.8366, "ARG_OF_PERICENTER": 249.9575, "MEAN_ANOMALY": 109.631, "EPHEMERIS_TYPE": 0, "CLASSIFICATION_TYPE": "U", "NORAD_CAT_ID": 31754, "ELEMENT_SET_NO": 999, "REV_AT_EPOCH": 96837, "BSTAR": 0.0013252392, "MEAN_MOTION_DOT": 4.376e-05, "MEAN_MOTION_DDOT": 0}, "tle": {"line1": "1 31754U 99025CFD 25336.16549376  .00004376  00000+0  13252-2 0  9999", "line2": "2 31754  99.0387 300.8366 0049220 249.9575 109.6310 14.42137718968373"}}, "geometry": {"type": "Point", "coordinates": [156.81623619728353, 73.59395546295411]}}, {"type": "Feature", "properties": {"norad_id": 31757, "name": "FENGYUN 1C DEB", "group": "fengyun-1c-debris", "lat": -43.24122769024403, "lon": 9.86827423222514, "alt_km": 1007.356772238375, "timestamp": "2025-12-05T05:43:15.393462+00:00", "meta": {"OBJECT_NAME": "FENGYUN 1C DEB", "OBJECT_ID": "1999-025CFG", "EPOCH": "2025-11-25T07:08:44.431872", "MEAN_MOTION": 14.07896533, "ECCENTRICITY": 0.0217941, "INCLINATION": 98.7698, "RA_OF_ASC_NODE": 351.8577, "ARG_OF_PERICENTER": 133.0933, "MEAN_ANOMALY": 228.8704, "EPHEMERIS_TYPE": 0, "CLASSIFICATION_TYPE": "U", "NORAD_CAT_ID": 31757, "ELEMENT_SET_NO": 999, "REV_AT_EPOCH": 63636, "BSTAR": 0.00027065602, "MEAN_MOTION_DOT": 5.3e-06, "MEAN_MOTION_DDOT": 0}, "tle": {"line1": "1 31757U 99025CFG 25329.29773648  .00000530  00000+0  27066-3 0  9996", "line2": "2 31757  98.7698 351.8577 0217941 133.0933 228.8704 14.07896533636365"}}, "geometry": {"type": "Point", "coordinates": [9.86827423222514, -43.24122769024403]}}, {"type": "Feature", "properties": {"norad_id": 31758, "name": "FENGYUN 1C DEB", "group": "fengyun-1c-debris", "lat": -2.0568148795211982, "lon": -10.988626770812886, "alt_km": 845.8945720742968, "timestamp": "2025-12-05T05:43:15.393472+00:00", "meta": {"OBJECT_NAME": "FENGYUN 1C DEB", "OBJECT_ID": "1999-025CFH", "EPOCH": "2025-12-04T06:24:41.233824", "MEAN_MOTION": 14.41707829, "ECCENTRICITY": 0.0319063, "INCLINATION": 98.0602, "RA_OF_ASC_NODE": 347.8011, "ARG_OF_PERICENTER": 115.9584, "MEAN_ANOMALY": 247.4847, "EPHEMERIS_TYPE": 0, "CLASSIFICATION_TYPE": "U", "NORAD_CAT_ID": 31758, "ELEMENT_SET_NO": 999, "REV_AT_EPOCH": 94078, "BSTAR": 0.0039941, "MEAN_MOTION_DOT": 0.00024088, "MEAN_MOTION_DDOT": 0}, "tle": {"line1": "1 31758U 99025CFH 25338.26714391  .00024088  00000+0  39941-2 0  9992", "line2": "2 31758  98.0602 347.8011 0319063 115.9584 247.4847 14.41707829940787"}}, "geometry": {"type": "Point", "coordinates": [-10.988626770812886, -2.0568148795211982]}}, {"type": "Feature", "properties": {"norad_id": 31760, "name": "FENGYUN 1C DEB", "group": "fengyun-1c-debris", "lat": -43.142066006152874, "lon": 85.22603846411644, "alt_km": 802.6441574664332, "timestamp": "2025-12-05T05:43:15.393482+00:00", "meta": {"OBJECT_NAME": "FENGYUN 1C DEB", "OBJECT_ID": "1999-025CFK", "EPOCH": "2025-12-03T05:13:55.072128", "MEAN_MOTION": 14.3011459, "ECCENTRICITY": 0.005247, "INCLINATION": 99.2549, "RA_OF_ASC_NODE": 74.2895, "ARG_OF_PERICENTER": 224.511, "MEAN_ANOMALY": 135.1849, "EPHEMERIS_TYPE": 0, "CLASSIFICATION_TYPE": "U", "NORAD_CAT_ID": 31760, "ELEMENT_SET_NO": 999, "REV_AT_EPOCH": 95996, "BSTAR": 0.0011296, "MEAN_MOTION_DOT": 2.916e-05, "MEAN_MOTION_DDOT": 0}, "tle": {"line1": "1 31760U 99025CFK 25337.21799852  .00002916  00000+0  11296-2 0  9993", "line2": "2 31760  99.2549  74.2895 0052470 224.5110 135.1849 14.30114590959962"}}, "geometry": {"type": "Point", "coordinates": [85.22603846411644, -43.142066006152874]}}, {"type": "Feature", "properties": {"norad_id": 31761, "name": "FENGYUN 1C DEB", "group": "fengyun-1c-debris", "lat": 15.087984921841104, "lon": 25.80791898286888, "alt_km": 1042.7535547386515, "timestamp": "2025-12-05T05:43:15.393492+00:00", "meta": {"OBJECT_NAME": "FENGYUN 1C DEB", "OBJECT_ID": "1999-025CFL", "EPOCH": "2025-12-03T01:33:08.897184", "MEAN_MOTION": 14.03175505, "ECCENTRICITY": 0.04737607, "INCLINATION": 98.6331, "RA_OF_ASC_NODE": 201.389, "ARG_OF_PERICENTER": 290.7398, "MEAN_ANOMALY": 64.3621, "EPHEMERIS_TYPE": 0, "CLASSIFICATION_TYPE": "U", "NORAD_CAT_ID": 31761, "ELEMENT_SET_NO": 999, "REV_AT_EPOCH": 57975, "BSTAR": 0.0028949548, "MEAN_MOTION_DOT": 0.00012331, "MEAN_MOTION_DDOT": 0}, "tle": {"line1": "1 31761U 99025CFL 25337.06468631  .00012331  00000+0  28950-2 0  9992", "line2": "2 31761  98.6331 201.3890 0473760 290.7398  64.3621 14.03175505579754"}}, "geometry": {"type": "Point", "coordinates": [25.80791898286888, 15.087984921841104]}}, {"type": "Feature", "properties": {"norad_id": 31763, "name": "FENGYUN 1C DEB", "group": "fengyun-1c-debris", "lat": -16.137276287893584, "lon": -93.80818503797032, "alt_km": 1175.636066477513, "timestamp": "2025-12-05T05:43:15.393502+00:00", "meta": {"OBJECT_NAME": "FENGYUN 1C DEB", "OBJECT_ID": "1999-025CFN", "EPOCH": "2025-12-04T13:05:49.280064", "MEAN_MOTION": 13.50298953, "ECCENTRICITY": 0.0547343, "INCLINATION": 98.5209, "RA_OF_ASC_NODE": 88.0812, "ARG_OF_PERICENTER": 90.8168, "MEAN_ANOMALY": 334.0319, "EPHEMERIS_TYPE": 0, "CLASSIFICATION_TYPE": "U", "NORAD_CAT_ID": 31763, "ELEMENT_SET_NO": 999, "REV_AT_EPOCH": 90895, "BSTAR": 0.0016207, "MEAN_MOTION_DOT": 2.625e-05, "MEAN_MOTION_DDOT": 0}, "tle": {"line1": "1 31763U 99025CFN 25338.54570926  .00002625  00000+0  16207-2 0  9996", "line2": "2 31763  98.5209  88.0812 0547343  90.8168 334.0319 13.50298953908959"}}, "geometry": {"type": "Point", "coordinates": [-93.80818503797032, -16.137276287893584]}}, {"type": "Feature", "properties": {"norad_id": 31766, "name": "FENGYUN 1C DEB", "group": "fengyun-1c-debris", "lat": 45.4647571360075, "lon": 166.3455915979823, "alt_km": 925.167108827296, "timestamp": "2025-12-05T05:43:15.393513+00:00", "meta": {"OBJECT_NAME": "FENGYUN 1C DEB", "OBJECT_ID": "1999-025CFR", "EPOCH": "2025-12-02T05:18:51.312672", "MEAN_MOTION": 14.05269134, "ECCENTRICITY": 0.0073838, "INCLINATION": 98.8156, "RA_OF_ASC_NODE": 334.3381, "ARG_OF_PERICENTER": 320.8627, "MEAN_ANOMALY": 38.7214, "EPHEMERIS_TYPE": 0, "CLASSIFICATION_TYPE": "U", "NORAD_CAT_ID": 31766, "ELEMENT_SET_NO": 999, "REV_AT_EPOCH": 63938, "BSTAR": 0.00033003, "MEAN_MOTION_DOT": 5.04e-06, "MEAN_MOTION_DDOT": 0}, "tle": {"line1": "1 31766U 99025CFR 25336.22142723  .00000504  00000+0  33003-3 0  9990", "line2": "2 31766  98.8156 334.3381 0073838 320.8627  38.7214 14.05269134639383"}}, "geometry": {"type": "Point", "coordinates": [166.3455915979823, 45.4647571360075]}}, {"type": "Feature", "properties": {"norad_id": 31767, "name": "FENGYUN 1C DEB", "group": "fengyun-1c-debris", "lat": 62.94363253676405, "lon": -153.15689336307202, "alt_km": 843.0240571120203, "timestamp": "2025-12-05T05:43:15.393524+00:00", "meta": {"OBJECT_NAME": "FENGYUN 1C DEB", "OBJECT_ID": "1999-025CFS", "EPOCH": "2025-12-01T14:37:35.233248", "MEAN_MOTION": 14.04944671, "ECCENTRICITY": 0.0041867, "INCLINATION": 98.8235, "RA_OF_ASC_NODE": 5.6102, "ARG_OF_PERICENTER": 100.5814, "MEAN_ANOMALY": 30.5422, "EPHEMERIS_TYPE": 0, "CLASSIFICATION_TYPE": "U", "NORAD_CAT_ID": 31767, "ELEMENT_SET_NO": 999, "REV_AT_EPOCH": 94669, "BSTAR": 0.00034816625, "MEAN_MOTION_DOT": 5.22e-06, "MEAN_MOTION_DDOT": 0}, "tle": {"line1": "1 31767U 99025CFS 25335.60943557  .00000522  00000+0  34817-3 0  9990", "line2": "2 31767  98.8235   5.6102 0041867 100.5814  30.5422 14.04944671946690"}}, "geometry": {"type": "Point", "coordinates": [-153.15689336307202, 62.94363253676405]}}]}